[{"OBJECT_NAME":"ALOS-4 (DAICHI-4)","OBJECT_ID":"2024-123A","EPOCH":"2026-03-08T18:59:33.675072","MEAN_MOTION":14.79484045,"ECCENTRICITY":0.00014902,"INCLINATION":97.9194,"RA_OF_ASC_NODE":166.4039,"ARG_OF_PERICENTER":100.3284,"MEAN_ANOMALY":259.8096,"EPHEMERIS_TYPE":0,"CLASSIFICATION_TYPE":"U","NORAD_CAT_ID":60182,"ELEMENT_SET_NO":999,"REV_AT_EPOCH":9103,"BSTAR":0.00034629245,"MEAN_MOTION_DOT":2.536e-5,"MEAN_MOTION_DDOT":0},{"OBJECT_NAME":"PEGASUS DEB","OBJECT_ID":"1994-029GC","EPOCH":"2026-03-09T23:03:07.542144","MEAN_MOTION":13.89172206,"ECCENTRICITY":0.05394822,"INCLINATION":81.4728,"RA_OF_ASC_NODE":252.4149,"ARG_OF_PERICENTER":331.1346,"MEAN_ANOMALY":142.5233,"EPHEMERIS_TYPE":0,"CLASSIFICATION_TYPE":"U","NORAD_CAT_ID":24129,"ELEMENT_SET_NO":999,"REV_AT_EPOCH":48606,"BSTAR":0.00045620982,"MEAN_MOTION_DOT":1.837e-5,"MEAN_MOTION_DDOT":0}]
